{"type":"Feature","properties":{"nome":"Londrina","fonte":"\u00a9 OpenStreetMap (ODbL)"},"geometry":{"type":"Polygon","coordinates":[[[-51.3212639,-23.4318778],[-51.3197379,-23.4541263],[-51.3173787,-23.460401],[-51.311649,-23.4608555],[-51.3084605,-23.4697858],[-51.3013184,-23.5477341],[-51.2972433,-23.5480096],[-51.2908226,-23.5592455],[-51.2957782,-23.5635388],[-51.2928179,-23.5651305],[-51.2883518,-23.5600377],[-51.2822866,-23.5587382],[-51.280836,-23.5645245],[-51.2748442,-23.5657285],[-51.2741092,-23.5692806],[-51.269084,-23.5667573],[-51.2686439,-23.5594407],[-51.2623982,-23.5606508],[-51.2551073,-23.5681892],[-51.2548387,-23.5602624],[-51.251614,-23.5592248],[-51.2405243,-23.5667025],[-51.2411326,-23.5569565],[-51.2359727,-23.5542291],[-51.2266514,-23.5557835],[-51.2223956,-23.5589951],[-51.2237395,-23.5623806],[-51.2197074,-23.5608844],[-51.2190607,-23.5635068],[-51.2265039,-23.5700582],[-51.2209251,-23.5726739],[-51.2181352,-23.5699378],[-51.21407,-23.5740777],[-51.2169106,-23.5771639],[-51.2148854,-23.5799586],[-51.2214508,-23.5814032],[-51.2196293,-23.5873917],[-51.2163721,-23.5891967],[-51.2104086,-23.5862956],[-51.2028835,-23.5894557],[-51.2035661,-23.5950886],[-51.1978298,-23.5970822],[-51.2026013,-23.6017532],[-51.2007429,-23.6112123],[-51.2052659,-23.6138246],[-51.2086574,-23.6095898],[-51.2161083,-23.6097237],[-51.2109356,-23.6136964],[-51.2143239,-23.6205473],[-51.2096269,-23.6312158],[-51.2127773,-23.6320864],[-51.2085726,-23.6401167],[-51.210285,-23.6442303],[-51.2067533,-23.6474644],[-51.2106861,-23.6488982],[-51.2080106,-23.6561894],[-51.2144884,-23.6583911],[-51.2094715,-23.6630895],[-51.2112732,-23.6681526],[-51.215375,-23.6693904],[-51.2133767,-23.6781084],[-51.2173705,-23.6766396],[-51.2200658,-23.6815926],[-51.2160264,-23.6930312],[-51.2222059,-23.6951639],[-51.2190261,-23.7000958],[-51.2260679,-23.7089793],[-51.2352723,-23.7065421],[-51.2397215,-23.7157456],[-51.2422699,-23.7228538],[-51.2407746,-23.7376987],[-51.1956723,-23.7657505],[-51.1899128,-23.7627624],[-51.1818337,-23.7638007],[-51.1755902,-23.7708798],[-51.1760391,-23.7756455],[-51.1664622,-23.7799199],[-51.1595393,-23.777322],[-51.1612856,-23.7730861],[-51.1536393,-23.7687067],[-51.1525295,-23.7623935],[-51.1391725,-23.770265],[-51.1402878,-23.7677439],[-51.1366832,-23.765391],[-51.1384243,-23.7589922],[-51.1343325,-23.7582474],[-51.1339631,-23.7552974],[-51.1262912,-23.7551835],[-51.1284931,-23.752124],[-51.1260165,-23.7492211],[-51.1300752,-23.7458924],[-51.1282767,-23.7437027],[-51.1189253,-23.7426884],[-51.1155215,-23.7477327],[-51.1084897,-23.7419338],[-51.1049371,-23.7435264],[-51.0997641,-23.7398149],[-51.0917216,-23.7441629],[-51.0859431,-23.7380661],[-51.0894308,-23.7353383],[-51.0960714,-23.7370793],[-51.1237237,-23.7185355],[-51.137418,-23.7204294],[-51.1464905,-23.7152287],[-51.1160804,-23.7031344],[-51.0778104,-23.7233203],[-51.0684554,-23.721817],[-51.0539525,-23.7261741],[-51.0463632,-23.7238642],[-51.0428681,-23.7305927],[-51.0375831,-23.7299283],[-51.0398205,-23.7428892],[-51.0331685,-23.7419354],[-51.0299738,-23.7480042],[-51.0249085,-23.7486509],[-51.0257365,-23.7531252],[-51.0115583,-23.749051],[-51.0110835,-23.7531576],[-51.0023963,-23.7588337],[-50.9926533,-23.756443],[-50.9951651,-23.7514821],[-50.989842,-23.7493326],[-50.9661458,-23.7544182],[-50.9669599,-23.7467231],[-50.9639182,-23.7407058],[-50.9562929,-23.7465971],[-50.9450592,-23.7441073],[-50.9418979,-23.7512626],[-50.9380624,-23.7434153],[-50.9330577,-23.7498378],[-50.926423,-23.7449622],[-50.922864,-23.7479646],[-50.919328,-23.7447713],[-50.9175923,-23.7476474],[-50.9034731,-23.7512188],[-50.8940483,-23.7438404],[-50.9046274,-23.7285259],[-50.9132113,-23.7266335],[-50.9150748,-23.7144145],[-50.898471,-23.7000568],[-50.8888045,-23.7008741],[-50.876517,-23.6953734],[-50.8791326,-23.6815769],[-50.8861965,-23.6754452],[-50.9040475,-23.6765597],[-50.9159494,-23.6706952],[-50.9213526,-23.6632497],[-50.9189789,-23.6569827],[-50.9231288,-23.6504447],[-50.9248232,-23.6303466],[-50.9322056,-23.6226956],[-50.9309912,-23.6096938],[-50.9363989,-23.6068402],[-50.9452666,-23.6076136],[-50.9474377,-23.5949059],[-50.951848,-23.5887236],[-50.9498354,-23.5853552],[-50.9407933,-23.5876497],[-50.9349434,-23.5845932],[-50.9306416,-23.5670828],[-50.9407914,-23.547297],[-50.9533565,-23.5390016],[-50.946193,-23.5097623],[-50.9463469,-23.4927076],[-50.9279349,-23.4808416],[-50.9275457,-23.4654333],[-50.9235823,-23.4547393],[-50.9316354,-23.4473531],[-50.9497872,-23.4593765],[-50.9603202,-23.4617117],[-50.9668651,-23.4583683],[-50.9659748,-23.4513938],[-50.9550208,-23.4364203],[-50.9534833,-23.4161807],[-50.9586232,-23.4114691],[-50.9707775,-23.4194159],[-50.9817382,-23.4164525],[-50.9893595,-23.4084284],[-50.9956958,-23.3949098],[-50.9920049,-23.3873665],[-50.993813,-23.3785432],[-51.0046703,-23.3685144],[-51.01003,-23.3569368],[-51.0038457,-23.3502076],[-50.9985709,-23.349603],[-50.9911743,-23.3588621],[-50.9871271,-23.359066],[-50.9813081,-23.3508425],[-50.9809527,-23.3426006],[-50.9895047,-23.3464139],[-51.0047021,-23.3393651],[-51.0292282,-23.338781],[-51.0450161,-23.3464965],[-51.0606594,-23.3355286],[-51.0728014,-23.3371789],[-51.0822436,-23.3293118],[-51.0986718,-23.2682625],[-51.1035777,-23.2615498],[-51.1047149,-23.2421216],[-51.1061578,-23.2465692],[-51.1103643,-23.2476944],[-51.1120052,-23.2419465],[-51.1175302,-23.2439633],[-51.120024,-23.2389655],[-51.1224418,-23.2426606],[-51.1274096,-23.2386194],[-51.130289,-23.2422023],[-51.1369034,-23.2378086],[-51.1368748,-23.2230502],[-51.150093,-23.2193374],[-51.1709815,-23.2203096],[-51.1703638,-23.1724571],[-51.2066234,-23.1722786],[-51.2111985,-23.1758832],[-51.2078785,-23.1816449],[-51.2093192,-23.1905581],[-51.2033971,-23.1939601],[-51.2003648,-23.2020046],[-51.1930336,-23.2081185],[-51.1963502,-23.2161431],[-51.1946683,-23.2252111],[-51.1797809,-23.2392499],[-51.1922118,-23.243078],[-51.1980841,-23.2395497],[-51.2073291,-23.2423691],[-51.2095578,-23.2389404],[-51.2196432,-23.2420892],[-51.248124,-23.2653458],[-51.2275474,-23.2948899],[-51.2099775,-23.3081502],[-51.2201681,-23.315384],[-51.2274095,-23.3111804],[-51.229431,-23.3321506],[-51.250452,-23.3664078],[-51.2489349,-23.3714221],[-51.2569004,-23.3744179],[-51.2512608,-23.3848618],[-51.2526668,-23.3910493],[-51.2475046,-23.3917991],[-51.2474642,-23.3949035],[-51.2531228,-23.3941877],[-51.2632989,-23.3986828],[-51.2731616,-23.3941019],[-51.2799134,-23.3987829],[-51.2805875,-23.3886795],[-51.2890088,-23.3902514],[-51.2907961,-23.3843461],[-51.3049037,-23.3805946],[-51.3117631,-23.3868447],[-51.3195059,-23.4156465],[-51.3164083,-23.4297389],[-51.3212639,-23.4318778]]]}}